{"type": "FeatureCollection", "features": [ {"type": "Feature", "properties": {"norad_id": 67000, "name": "2025-292H", "group": "last-30-days", "lat": -23.730365799204666, "lon": 74.54686762344416, "alt_km": 558.717134762247, "timestamp": "2025-12-24T16:52:40.181371+00:00", "meta": {"OBJECT_NAME": "2025-292H", "OBJECT_ID": "2025-292H", "EPOCH": "2025-12-23T10:40:00.051456", "MEAN_MOTION": 15.05018797, "ECCENTRICITY": 0.00146077, "INCLINATION": 97.656, "RA_OF_ASC_NODE": 69.9088, "ARG_OF_PERICENTER": 240.3187, "MEAN_ANOMALY": 119.6586, "EPHEMERIS_TYPE": 0, "CLASSIFICATION_TYPE": "U", "NORAD_CAT_ID": 67000, "ELEMENT_SET_NO": 999, "REV_AT_EPOCH": 187, "BSTAR": 0.00048749266, "MEAN_MOTION_DOT": 6.877e-05, "MEAN_MOTION_DDOT": 0}, "tle": {"line1": "1 67000U 25292H   25357.44444504  .00006877  00000+0  48749-3 0  9996", "line2": "2 67000  97.6560  69.9088 0014607 240.3187 119.6586 15.05018797  1876"}}, "geometry": {"type": "Point", "coordinates": [74.54686762344416, -23.730365799204666]}}, {"type": "Feature", "properties": {"norad_id": 67001, "name": "2025-292J", "group": "last-30-days", "lat": -54.27849385791591, "lon": 81.91703767964825, "alt_km": 558.4903756232261, "timestamp": "2025-12-24T16:52:40.181381+00:00", "meta": {"OBJECT_NAME": "2025-292J", "OBJECT_ID": "2025-292J", "EPOCH": "2025-12-24T04:21:06.296832", "MEAN_MOTION": 15.0442037, "ECCENTRICITY": 0.00148858, "INCLINATION": 97.6536, "RA_OF_ASC_NODE": 70.623, "ARG_OF_PERICENTER": 226.9377, "MEAN_ANOMALY": 133.0603, "EPHEMERIS_TYPE": 0, "CLASSIFICATION_TYPE": "U", "NORAD_CAT_ID": 67001, "ELEMENT_SET_NO": 999, "REV_AT_EPOCH": 211, "BSTAR": 0.0004196383, "MEAN_MOTION_DOT": 5.816e-05, "MEAN_MOTION_DDOT": 0}, "tle": {"line1": "1 67001U 25292J   25358.18132288  .00005816  00000+0  41964-3 0  9996", "line2": "2 67001  97.6536  70.6230 0014885 226.9377 133.0603 15.04420370  2118"}}, "geometry": {"type": "Point", "coordinates": [81.91703767964825, -54.27849385791591]}}, {"type": "Feature", "properties": {"norad_id": 67002, "name": "ZK-1A R/B", "group": "last-30-days", "lat": 55.71118792792571, "lon": -96.05434281498285, "alt_km": 519.4150198986454, "timestamp": "2025-12-24T16:52:40.181392+00:00", "meta": {"OBJECT_NAME": "ZK-1A R/B", "OBJECT_ID": "2025-292K", "EPOCH": "2025-12-24T04:01:05.009376", "MEAN_MOTION": 15.5822502, "ECCENTRICITY": 0.02069353, "INCLINATION": 97.7202, "RA_OF_ASC_NODE": 71.8883, "ARG_OF_PERICENTER": 323.8033, "MEAN_ANOMALY": 34.9362, "EPHEMERIS_TYPE": 0, "CLASSIFICATION_TYPE": "U", "NORAD_CAT_ID": 67002, "ELEMENT_SET_NO": 999, "REV_AT_EPOCH": 217, "BSTAR": 0.00072425032, "MEAN_MOTION_DOT": 0.00155387, "MEAN_MOTION_DDOT": 8.659054e-06}, "tle": {"line1": "1 67002U 25292K   25358.16741909  .00155387  86591-5  72425-3 0  9991", "line2": "2 67002  97.7202  71.8883 0206935 323.8033  34.9362 15.58225020  2173"}}, "geometry": {"type": "Point", "coordinates": [-96.05434281498285, 55.71118792792571]}}, {"type": "Feature", "properties": {"norad_id": 67003, "name": "STARLINK-35660", "group": "last-30-days", "lat": 64.99210527955192, "lon": -19.483062979943767, "alt_km": 326.54843985959633, "timestamp": "2025-12-24T16:52:40.181405+00:00", "meta": {"OBJECT_NAME": "STARLINK-35660", "OBJECT_ID": "2025-293A", "EPOCH": "2025-12-24T06:00:02.000160", "MEAN_MOTION": 15.81231962, "ECCENTRICITY": 0.00037594, "INCLINATION": 69.9928, "RA_OF_ASC_NODE": 290.4463, "ARG_OF_PERICENTER": 276.768, "MEAN_ANOMALY": 100.1032, "EPHEMERIS_TYPE": 0, "CLASSIFICATION_TYPE": "U", "NORAD_CAT_ID": 67003, "ELEMENT_SET_NO": 999, "REV_AT_EPOCH": 202, "BSTAR": -0.0091260016, "MEAN_MOTION_DOT": -0.01577306, "MEAN_MOTION_DDOT": 0}, "tle": {"line1": "1 67003U 25293A   25358.25002315 -.01577306  00000+0 -91260-2 0  9998", "line2": "2 67003  69.9928 290.4463 0003759 276.7680 100.1032 15.81231962  2028"}}, "geometry": {"type": "Point", "coordinates": [-19.483062979943767, 64.99210527955192]}}, {"type": "Feature", "properties": {"norad_id": 67004, "name": "STARLINK-35913", "group": "last-30-days", "lat": 66.21892464187712, "lon": -15.06919340221574, "alt_km": 326.5879228456906, "timestamp": "2025-12-24T16:52:40.181420+00:00", "meta": {"OBJECT_NAME": "STARLINK-35913", "OBJECT_ID": "2025-293B", "EPOCH": "2025-12-24T06:00:02.000160", "MEAN_MOTION": 15.81225404, "ECCENTRICITY": 0.00038405, "INCLINATION": 69.9929, "RA_OF_ASC_NODE": 290.4436, "ARG_OF_PERICENTER": 274.3242, "MEAN_ANOMALY": 104.7602, "EPHEMERIS_TYPE": 0, "CLASSIFICATION_TYPE": "U", "NORAD_CAT_ID": 67004, "ELEMENT_SET_NO": 999, "REV_AT_EPOCH": 202, "BSTAR": -0.0091720741, "MEAN_MOTION_DOT": -0.01583935, "MEAN_MOTION_DDOT": 0}, "tle": {"line1": "1 67004U 25293B   25358.25002315 -.01583935  00000+0 -91721-2 0  9996", "line2": "2 67004  69.9929 290.4436 0003840 274.3242 104.7602 15.81225404  2026"}}, "geometry": {"type": "Point", "coordinates": [-15.06919340221574, 66.21892464187712]}}, {"type": "Feature", "properties": {"norad_id": 67005, "name": "STARLINK-36148", "group": "last-30-days", "lat": 67.35331770930574, "lon": -10.002724001608165, "alt_km": 326.6091197452979, "timestamp": "2025-12-24T16:52:40.181434+00:00", "meta": {"OBJECT_NAME": "STARLINK-36148", "OBJECT_ID": "2025-293C", "EPOCH": "2025-12-24T06:00:02.000160", "MEAN_MOTION": 15.81215977, "ECCENTRICITY": 0.00039199, "INCLINATION": 69.9931, "RA_OF_ASC_NODE": 290.4413, "ARG_OF_PERICENTER": 273.7974, "MEAN_ANOMALY": 107.6009, "EPHEMERIS_TYPE": 0, "CLASSIFICATION_TYPE": "U", "NORAD_CAT_ID": 67005, "ELEMENT_SET_NO": 999, "REV_AT_EPOCH": 202, "BSTAR": -0.0092080436, "MEAN_MOTION_DOT": -0.01588841, "MEAN_MOTION_DDOT": 0}, "tle": {"line1": "1 67005U 25293C   25358.25002315 -.01588841  00000+0 -92080-2 0  9997", "line2": "2 67005  69.9931 290.4413 0003919 273.7974 107.6009 15.81215977  2024"}}, "geometry": {"type": "Point", "coordinates": [-10.002724001608165, 67.35331770930574]}}, {"type": "Feature", "properties": {"norad_id": 67006, "name": "STARLINK-36156", "group": "last-30-days", "lat": 69.24059595559034, "lon": 3.145134620552981, "alt_km": 326.6228366714831, "timestamp": "2025-12-24T16:52:40.181445+00:00", "meta": {"OBJECT_NAME": "STARLINK-36156", "OBJECT_ID": "2025-293D", "EPOCH": "2025-12-24T06:00:02.000160", "MEAN_MOTION": 15.81161947, "ECCENTRICITY": 0.0003945, "INCLINATION": 69.9929, "RA_OF_ASC_NODE": 290.4345, "ARG_OF_PERICENTER": 276.7729, "MEAN_ANOMALY": 109.9068, "EPHEMERIS_TYPE": 0, "CLASSIFICATION_TYPE": "U", "NORAD_CAT_ID": 67006, "ELEMENT_SET_NO": 999, "REV_AT_EPOCH": 202, "BSTAR": -0.0092062227, "MEAN_MOTION_DOT": -0.01585097, "MEAN_MOTION_DDOT": 0}, "tle": {"line1": "1 67006U 25293D   25358.25002315 -.01585097  00000+0 -92062-2 0  9998", "line2": "2 67006  69.9929 290.4345 0003945 276.7729 109.9068 15.81161947  2023"}}, "geometry": {"type": "Point", "coordinates": [3.145134620552981, 69.24059595559034]}}, {"type": "Feature", "properties": {"norad_id": 67007, "name": "STARLINK-36123", "group": "last-30-days", "lat": 68.49500621896267, "lon": -3.218900875589632, "alt_km": 326.59202266763805, "timestamp": "2025-12-24T16:52:40.181455+00:00", "meta": {"OBJECT_NAME": "STARLINK-36123", "OBJECT_ID": "2025-293E", "EPOCH": "2025-12-24T06:00:02.000160", "MEAN_MOTION": 15.81181446, "ECCENTRICITY": 0.00038743, "INCLINATION": 69.9928, "RA_OF_ASC_NODE": 290.4373, "ARG_OF_PERICENTER": 274.4165, "MEAN_ANOMALY": 109.8265, "EPHEMERIS_TYPE": 0, "CLASSIFICATION_TYPE": "U", "NORAD_CAT_ID": 67007, "ELEMENT_SET_NO": 999, "REV_AT_EPOCH": 202, "BSTAR": -0.0092156484, "MEAN_MOTION_DOT": -0.01587704, "MEAN_MOTION_DDOT": 0}, "tle": {"line1": "1 67007U 25293E   25358.25002315 -.01587704  00000+0 -92156-2 0  9990", "line2": "2 67007  69.9928 290.4373 0003874 274.4165 109.8265 15.81181446  2028"}}, "geometry": {"type": "Point", "coordinates": [-3.218900875589632, 68.49500621896267]}}, {"type": "Feature", "properties": {"norad_id": 67008, "name": "STARLINK-36163", "group": "last-30-days", "lat": 69.8148903543318, "lon": 11.504574754417531, "alt_km": 326.5696528100625, "timestamp": "2025-12-24T16:52:40.181465+00:00", "meta": {"OBJECT_NAME": "STARLINK-36163", "OBJECT_ID": "2025-293F", "EPOCH": "2025-12-24T06:00:02.000160", "MEAN_MOTION": 15.81123819, "ECCENTRICITY": 0.00037461, "INCLINATION": 69.993, "RA_OF_ASC_NODE": 290.4311, "ARG_OF_PERICENTER": 277.0894, "MEAN_ANOMALY": 112.6281, "EPHEMERIS_TYPE": 0, "CLASSIFICATION_TYPE": "U", "NORAD_CAT_ID": 67008, "ELEMENT_SET_NO": 999, "REV_AT_EPOCH": 202, "BSTAR": -0.0092275565, "MEAN_MOTION_DOT": -0.01585635, "MEAN_MOTION_DDOT": 0}, "tle": {"line1": "1 67008U 25293F   25358.25002315 -.01585635  00000+0 -92276-2 0  9995", "line2": "2 67008  69.9930 290.4311 0003746 277.0894 112.6281 15.81123819  2020"}}, "geometry": {"type": "Point", "coordinates": [11.504574754417531, 69.8148903543318]}}, {"type": "Feature", "properties": {"norad_id": 67009, "name": "STARLINK-36118", "group": "last-30-days", "lat": 69.9792387188547, "lon": 18.911771796456595, "alt_km": 326.5591549343262, "timestamp": "2025-12-24T16:52:40.181475+00:00", "meta": {"OBJECT_NAME": "STARLINK-36118", "OBJECT_ID": "2025-293G", "EPOCH": "2025-12-24T06:00:02.000160", "MEAN_MOTION": 15.8109921, "ECCENTRICITY": 0.0003655, "INCLINATION": 69.9929, "RA_OF_ASC_NODE": 290.4279, "ARG_OF_PERICENTER": 279.1016, "MEAN_ANOMALY": 113.2003, "EPHEMERIS_TYPE": 0, "CLASSIFICATION_TYPE": "U", "NORAD_CAT_ID": 67009, "ELEMENT_SET_NO": 999, "REV_AT_EPOCH": 196, "BSTAR": -0.0092235344, "MEAN_MOTION_DOT": -0.01583348, "MEAN_MOTION_DDOT": 0}, "tle": {"line1": "1 67009U 25293G   25358.25002315 -.01583348  00000+0 -92235-2 0  9990", "line2": "2 67009  69.9929 290.4279 0003655 279.1016 113.2003 15.81099210  1968"}}, "geometry": {"type": "Point", "coordinates": [18.911771796456595, 69.9792387188547]}}]}